STARLINK-5731           
1 56924U 23083BA  26077.25002315  .00087513  00000+0  47670-2 0  9991
2 56924  43.0007  21.5216 0001442 264.0054 207.1362 15.13420733  5679
STARLINK-5733           
1 56925U 23083BB  26077.25002315  .00089085  00000+0  46833-2 0  9998
2 56925  43.0016  21.4151 0001363 281.1298 234.7782 15.14673090  5779
STARLINK-5746           
1 56926U 23083BC  26077.25002315  .00086329  00000+0  45566-2 0  9999
2 56926  43.0011  21.5295 0001325 329.6240 140.2567 15.14548259  5622
STARLINK-5808           
1 56927U 23083BD  26077.25002315  .00044580  00000+0  18125-2 0  9994
2 56927  42.9992 291.1340 0000765 279.2535 230.9907 15.23844423  5738
STARLINK-5850           
1 57049U 23088B   26077.25002315  .00034028  00000+0  20229-2 0  9999
2 57049  43.0004  61.1515 0001739 265.4012 153.0419 15.10692725  5777
STARLINK-5845           
1 57050U 23088C   26077.25002315  .00033585  00000+0  20049-2 0  9998
2 57050  43.0008  61.0058 0000940 317.1166 161.3086 15.10547504  5734
STARLINK-5839           
1 57051U 23088D   26077.25002315  .00039638  00000+0  22389-2 0  9993
2 57051  43.0007  60.8371 0001177 296.3393 253.4213 15.12474533  5785
STARLINK-5860           
1 57052U 23088E   26077.25002315  .00039079  00000+0  21969-2 0  9996
2 57052  43.0007  60.8545 0001132 300.7579 242.9580 15.12649050  5638
STARLINK-5865           
1 57053U 23088F   26077.25002315  .00037289  00000+0  23135-2 0  9995
2 57053  43.0012  60.8724 0001314 322.2134 212.2286 15.09102929  5786
STARLINK-5881           
1 57054U 23088G   26077.25002315  .00038836  00000+0  24063-2 0  9996
2 57054  42.9997  60.7340 0000931 334.5411 258.4917 15.09133566  5737
STARLINK-6237           
1 57055U 23088H   26077.25002315  .00037620  00000+0  22303-2 0  9992
2 57055  43.0009  60.8614 0001161 317.7297 221.9068 15.10751511  5785
STARLINK-6353           
1 57056U 23088J   26077.25002315  .00038239  00000+0  22431-2 0  9992
2 57056  43.0005  60.6071 0001354 288.0063 358.2014 15.11127946  5732
STARLINK-6223           
1 57057U 23088K   26077.25002315  .00037736  00000+0  23280-2 0  9997
2 57057  43.0001  60.6551 0000651   2.5884 253.6179 15.09304899  5776
STARLINK-6217           
1 57058U 23088L   26077.25002315  .00039964  00000+0  22881-2 0  9999
2 57058  43.0003  60.5747 0001057 257.8840  42.7740 15.11985118  5631
STARLINK-6211           
1 57059U 23088M   26077.25002315  .00030089  00000+0  16930-2 0  9997
2 57059  42.9992  61.0185 0001628 307.0240 158.0889 15.12725226  5734
STARLINK-6227           
1 57060U 23088N   26077.25002315  .00030504  00000+0  19395-2 0  9999
2 57060  43.0004  61.1948 0002410 242.6990 152.0899 15.08284842  5729
