[{"OBJECT_NAME":"STARLINK-5731","OBJECT_ID":"2023-083BA","EPOCH":"2026-03-18T06:00:02.000160","MEAN_MOTION":15.13420733,"ECCENTRICITY":0.00014426,"INCLINATION":43.0007,"RA_OF_ASC_NODE":21.5216,"ARG_OF_PERICENTER":264.0054,"MEAN_ANOMALY":207.1362,"EPHEMERIS_TYPE":0,"CLASSIFICATION_TYPE":"U","NORAD_CAT_ID":56924,"ELEMENT_SET_NO":999,"REV_AT_EPOCH":567,"BSTAR":0.0047670062,"MEAN_MOTION_DOT":0.00087513,"MEAN_MOTION_DDOT":0},{"OBJECT_NAME":"STARLINK-5733","OBJECT_ID":"2023-083BB","EPOCH":"2026-03-18T06:00:02.000160","MEAN_MOTION":15.1467309,"ECCENTRICITY":0.00013639,"INCLINATION":43.0016,"RA_OF_ASC_NODE":21.4151,"ARG_OF_PERICENTER":281.1298,"MEAN_ANOMALY":234.7782,"EPHEMERIS_TYPE":0,"CLASSIFICATION_TYPE":"U","NORAD_CAT_ID":56925,"ELEMENT_SET_NO":999,"REV_AT_EPOCH":577,"BSTAR":0.0046833269,"MEAN_MOTION_DOT":0.00089085,"MEAN_MOTION_DDOT":0},{"OBJECT_NAME":"STARLINK-5746","OBJECT_ID":"2023-083BC","EPOCH":"2026-03-18T06:00:02.000160","MEAN_MOTION":15.14548259,"ECCENTRICITY":0.0001325,"INCLINATION":43.0011,"RA_OF_ASC_NODE":21.5295,"ARG_OF_PERICENTER":329.624,"MEAN_ANOMALY":140.2567,"EPHEMERIS_TYPE":0,"CLASSIFICATION_TYPE":"U","NORAD_CAT_ID":56926,"ELEMENT_SET_NO":999,"REV_AT_EPOCH":562,"BSTAR":0.0045565914,"MEAN_MOTION_DOT":0.00086329,"MEAN_MOTION_DDOT":0},{"OBJECT_NAME":"STARLINK-5808","OBJECT_ID":"2023-083BD","EPOCH":"2026-03-18T06:00:02.000160","MEAN_MOTION":15.23844423,"ECCENTRICITY":7.651e-5,"INCLINATION":42.9992,"RA_OF_ASC_NODE":291.134,"ARG_OF_PERICENTER":279.2535,"MEAN_ANOMALY":230.9907,"EPHEMERIS_TYPE":0,"CLASSIFICATION_TYPE":"U","NORAD_CAT_ID":56927,"ELEMENT_SET_NO":999,"REV_AT_EPOCH":573,"BSTAR":0.0018124761,"MEAN_MOTION_DOT":0.0004458,"MEAN_MOTION_DDOT":0},{"OBJECT_NAME":"STARLINK-5850","OBJECT_ID":"2023-088B","EPOCH":"2026-03-18T06:00:02.000160","MEAN_MOTION":15.10692725,"ECCENTRICITY":0.00017392,"INCLINATION":43.0004,"RA_OF_ASC_NODE":61.1515,"ARG_OF_PERICENTER":265.4012,"MEAN_ANOMALY":153.0419,"EPHEMERIS_TYPE":0,"CLASSIFICATION_TYPE":"U","NORAD_CAT_ID":57049,"ELEMENT_SET_NO":999,"REV_AT_EPOCH":577,"BSTAR":0.0020228919,"MEAN_MOTION_DOT":0.00034028,"MEAN_MOTION_DDOT":0},{"OBJECT_NAME":"STARLINK-5845","OBJECT_ID":"2023-088C","EPOCH":"2026-03-18T06:00:02.000160","MEAN_MOTION":15.10547504,"ECCENTRICITY":9.401e-5,"INCLINATION":43.0008,"RA_OF_ASC_NODE":61.0058,"ARG_OF_PERICENTER":317.1166,"MEAN_ANOMALY":161.3086,"EPHEMERIS_TYPE":0,"CLASSIFICATION_TYPE":"U","NORAD_CAT_ID":57050,"ELEMENT_SET_NO":999,"REV_AT_EPOCH":573,"BSTAR":0.0020048681,"MEAN_MOTION_DOT":0.00033585,"MEAN_MOTION_DDOT":0},{"OBJECT_NAME":"STARLINK-5839","OBJECT_ID":"2023-088D","EPOCH":"2026-03-18T06:00:02.000160","MEAN_MOTION":15.12474533,"ECCENTRICITY":0.00011777,"INCLINATION":43.0007,"RA_OF_ASC_NODE":60.8371,"ARG_OF_PERICENTER":296.3393,"MEAN_ANOMALY":253.4213,"EPHEMERIS_TYPE":0,"CLASSIFICATION_TYPE":"U","NORAD_CAT_ID":57051,"ELEMENT_SET_NO":999,"REV_AT_EPOCH":578,"BSTAR":0.0022388912,"MEAN_MOTION_DOT":0.00039638,"MEAN_MOTION_DDOT":0},{"OBJECT_NAME":"STARLINK-5860","OBJECT_ID":"2023-088E","EPOCH":"2026-03-18T06:00:02.000160","MEAN_MOTION":15.1264905,"ECCENTRICITY":0.00011323,"INCLINATION":43.0007,"RA_OF_ASC_NODE":60.8545,"ARG_OF_PERICENTER":300.7579,"MEAN_ANOMALY":242.958,"EPHEMERIS_TYPE":0,"CLASSIFICATION_TYPE":"U","NORAD_CAT_ID":57052,"ELEMENT_SET_NO":999,"REV_AT_EPOCH":563,"BSTAR":0.0021969287,"MEAN_MOTION_DOT":0.00039079,"MEAN_MOTION_DDOT":0},{"OBJECT_NAME":"STARLINK-5865","OBJECT_ID":"2023-088F","EPOCH":"2026-03-18T06:00:02.000160","MEAN_MOTION":15.09102929,"ECCENTRICITY":0.00013145,"INCLINATION":43.0012,"RA_OF_ASC_NODE":60.8724,"ARG_OF_PERICENTER":322.2134,"MEAN_ANOMALY":212.2286,"EPHEMERIS_TYPE":0,"CLASSIFICATION_TYPE":"U","NORAD_CAT_ID":57053,"ELEMENT_SET_NO":999,"REV_AT_EPOCH":578,"BSTAR":0.0023134807,"MEAN_MOTION_DOT":0.00037289,"MEAN_MOTION_DDOT":0},{"OBJECT_NAME":"STARLINK-5881","OBJECT_ID":"2023-088G","EPOCH":"2026-03-18T06:00:02.000160","MEAN_MOTION":15.09133566,"ECCENTRICITY":9.31e-5,"INCLINATION":42.9997,"RA_OF_ASC_NODE":60.734,"ARG_OF_PERICENTER":334.5411,"MEAN_ANOMALY":258.4917,"EPHEMERIS_TYPE":0,"CLASSIFICATION_TYPE":"U","NORAD_CAT_ID":57054,"ELEMENT_SET_NO":999,"REV_AT_EPOCH":573,"BSTAR":0.002406323,"MEAN_MOTION_DOT":0.00038836,"MEAN_MOTION_DDOT":0},{"OBJECT_NAME":"STARLINK-6237","OBJECT_ID":"2023-088H","EPOCH":"2026-03-18T06:00:02.000160","MEAN_MOTION":15.10751511,"ECCENTRICITY":0.00011616,"INCLINATION":43.0009,"RA_OF_ASC_NODE":60.8614,"ARG_OF_PERICENTER":317.7297,"MEAN_ANOMALY":221.9068,"EPHEMERIS_TYPE":0,"CLASSIFICATION_TYPE":"U","NORAD_CAT_ID":57055,"ELEMENT_SET_NO":999,"REV_AT_EPOCH":578,"BSTAR":0.0022302881,"MEAN_MOTION_DOT":0.0003762,"MEAN_MOTION_DDOT":0},{"OBJECT_NAME":"STARLINK-6353","OBJECT_ID":"2023-088J","EPOCH":"2026-03-18T06:00:02.000160","MEAN_MOTION":15.11127946,"ECCENTRICITY":0.00013545,"INCLINATION":43.0005,"RA_OF_ASC_NODE":60.6071,"ARG_OF_PERICENTER":288.0063,"MEAN_ANOMALY":358.2014,"EPHEMERIS_TYPE":0,"CLASSIFICATION_TYPE":"U","NORAD_CAT_ID":57056,"ELEMENT_SET_NO":999,"REV_AT_EPOCH":573,"BSTAR":0.0022431088,"MEAN_MOTION_DOT":0.00038239,"MEAN_MOTION_DDOT":0},{"OBJECT_NAME":"STARLINK-6223","OBJECT_ID":"2023-088K","EPOCH":"2026-03-18T06:00:02.000160","MEAN_MOTION":15.09304899,"ECCENTRICITY":6.515e-5,"INCLINATION":43.0001,"RA_OF_ASC_NODE":60.6551,"ARG_OF_PERICENTER":2.5884,"MEAN_ANOMALY":253.6179,"EPHEMERIS_TYPE":0,"CLASSIFICATION_TYPE":"U","NORAD_CAT_ID":57057,"ELEMENT_SET_NO":999,"REV_AT_EPOCH":577,"BSTAR":0.0023279869,"MEAN_MOTION_DOT":0.00037736,"MEAN_MOTION_DDOT":0},{"OBJECT_NAME":"STARLINK-6217","OBJECT_ID":"2023-088L","EPOCH":"2026-03-18T06:00:02.000160","MEAN_MOTION":15.11985118,"ECCENTRICITY":0.00010571,"INCLINATION":43.0003,"RA_OF_ASC_NODE":60.5747,"ARG_OF_PERICENTER":257.884,"MEAN_ANOMALY":42.774,"EPHEMERIS_TYPE":0,"CLASSIFICATION_TYPE":"U","NORAD_CAT_ID":57058,"ELEMENT_SET_NO":999,"REV_AT_EPOCH":563,"BSTAR":0.0022881067,"MEAN_MOTION_DOT":0.00039964,"MEAN_MOTION_DDOT":0},{"OBJECT_NAME":"STARLINK-6211","OBJECT_ID":"2023-088M","EPOCH":"2026-03-18T06:00:02.000160","MEAN_MOTION":15.12725226,"ECCENTRICITY":0.00016285,"INCLINATION":42.9992,"RA_OF_ASC_NODE":61.0185,"ARG_OF_PERICENTER":307.024,"MEAN_ANOMALY":158.0889,"EPHEMERIS_TYPE":0,"CLASSIFICATION_TYPE":"U","NORAD_CAT_ID":57059,"ELEMENT_SET_NO":999,"REV_AT_EPOCH":573,"BSTAR":0.0016929732,"MEAN_MOTION_DOT":0.00030089,"MEAN_MOTION_DDOT":0},{"OBJECT_NAME":"STARLINK-6227","OBJECT_ID":"2023-088N","EPOCH":"2026-03-18T06:00:02.000160","MEAN_MOTION":15.08284842,"ECCENTRICITY":0.00024106,"INCLINATION":43.0004,"RA_OF_ASC_NODE":61.1948,"ARG_OF_PERICENTER":242.699,"MEAN_ANOMALY":152.0899,"EPHEMERIS_TYPE":0,"CLASSIFICATION_TYPE":"U","NORAD_CAT_ID":57060,"ELEMENT_SET_NO":999,"REV_AT_EPOCH":572,"BSTAR":0.0019395367,"MEAN_MOTION_DOT":0.00030504,"MEAN_MOTION_DDOT":0}]
